{
  "type": "FeatureCollection",
  "features": [
    {
      "type": "Feature",
      "properties": {
        "norad_id": 58701,
        "name": "TIANMU-1 16",
        "group": "weather",
        "lat": -43.92143897843146,
        "lon": -26.044070936052254,
        "alt_km": 500.2042203487945,
        "timestamp": "2025-12-06T07:31:39.888240+00:00",
        "meta_object_name": "TIANMU-1 16",
        "meta_object_id": "2024-004B",
        "meta_epoch": "2025-12-05T17:56:31.795008",
        "meta_mean_motion": 15.24287379,
        "meta_eccentricity": 0.0004871,
        "meta_inclination": 97.4567,
        "meta_ra_of_asc_node": 160.6391,
        "meta_arg_of_pericenter": 325.5818,
        "meta_mean_anomaly": 34.5104,
        "meta_ephemeris_type": 0,
        "meta_classification_type": "U",
        "meta_norad_cat_id": 58701,
        "meta_element_set_no": 999,
        "meta_rev_at_epoch": 10628,
        "meta_bstar": 8.9284e-05,
        "meta_mean_motion_dot": 2.109e-05,
        "meta_mean_motion_ddot": 0,
        "tle_line1": "1 58701U 24004B   25339.74759022  .00002109  00000+0  89284-4 0  9995",
        "tle_line2": "2 58701  97.4567 160.6391 0004871 325.5818  34.5104 15.24287379106281"
      },
      "geometry": {
        "type": "Point",
        "coordinates": [
          -26.044070936052254,
          -43.92143897843146
        ]
      }
    },
    {
      "type": "Feature",
      "properties": {
        "norad_id": 58702,
        "name": "TIANMU-1 17",
        "group": "weather",
        "lat": -51.64265519594442,
        "lon": 171.13893082621192,
        "alt_km": 497.0317668044763,
        "timestamp": "2025-12-06T07:31:39.888250+00:00",
        "meta_object_name": "TIANMU-1 17",
        "meta_object_id": "2024-004C",
        "meta_epoch": "2025-12-05T06:32:56.603904",
        "meta_mean_motion": 15.2432418,
        "meta_eccentricity": 0.00041802,
        "meta_inclination": 97.4595,
        "meta_ra_of_asc_node": 160.573,
        "meta_arg_of_pericenter": 331.3683,
        "meta_mean_anomaly": 28.7324,
        "meta_ephemeris_type": 0,
        "meta_classification_type": "U",
        "meta_norad_cat_id": 58702,
        "meta_element_set_no": 999,
        "meta_rev_at_epoch": 10620,
        "meta_bstar": 0.00049179219,
        "meta_mean_motion_dot": 0.00011966,
        "meta_mean_motion_ddot": 0,
        "tle_line1": "1 58702U 24004C   25339.27287736  .00011966  00000+0  49179-3 0  9991",
        "tle_line2": "2 58702  97.4595 160.5730 0004180 331.3683  28.7324 15.24324180106200"
      },
      "geometry": {
        "type": "Point",
        "coordinates": [
          171.13893082621192,
          -51.64265519594442
        ]
      }
    },
    {
      "type": "Feature",
      "properties": {
        "norad_id": 58703,
        "name": "TIANMU-1 18",
        "group": "weather",
        "lat": 39.15484052768763,
        "lon": 155.67676479287897,
        "alt_km": 489.04969841444563,
        "timestamp": "2025-12-06T07:31:39.888260+00:00",
        "meta_object_name": "TIANMU-1 18",
        "meta_object_id": "2024-004D",
        "meta_epoch": "2025-12-05T07:43:22.046016",
        "meta_mean_motion": 15.24316923,
        "meta_eccentricity": 0.00035396,
        "meta_inclination": 97.4613,
        "meta_ra_of_asc_node": 160.8154,
        "meta_arg_of_pericenter": 332.6683,
        "meta_mean_anomaly": 27.4368,
        "meta_ephemeris_type": 0,
        "meta_classification_type": "U",
        "meta_norad_cat_id": 58703,
        "meta_element_set_no": 999,
        "meta_rev_at_epoch": 10621,
        "meta_bstar": 0.00048376536,
        "meta_mean_motion_dot": 0.00011766,
        "meta_mean_motion_ddot": 0,
        "tle_line1": "1 58703U 24004D   25339.32178294  .00011766  00000+0  48377-3 0  9993",
        "tle_line2": "2 58703  97.4613 160.8154 0003539 332.6683  27.4368 15.24316923106217"
      },
      "geometry": {
        "type": "Point",
        "coordinates": [
          155.67676479287897,
          39.15484052768763
        ]
      }
    },
    {
      "type": "Feature",
      "properties": {
        "norad_id": 58990,
        "name": "INSAT-3DS",
        "group": "weather",
        "lat": -0.03399212164961018,
        "lon": -89.66714770230546,
        "alt_km": 35779.67794169147,
        "timestamp": "2025-12-06T07:31:39.888272+00:00",
        "meta_object_name": "INSAT-3DS",
        "meta_object_id": "2024-033A",
        "meta_epoch": "2025-12-05T03:42:38.812896",
        "meta_mean_motion": 1.00268596,
        "meta_eccentricity": 0.00017602,
        "meta_inclination": 0.0112,
        "meta_ra_of_asc_node": 0.2967,
        "meta_arg_of_pericenter": 260.1879,
        "meta_mean_anomaly": 311.474,
        "meta_ephemeris_type": 0,
        "meta_classification_type": "U",
        "meta_norad_cat_id": 58990,
        "meta_element_set_no": 999,
        "meta_rev_at_epoch": 4512,
        "meta_bstar": 0,
        "meta_mean_motion_dot": 0,
        "meta_mean_motion_ddot": 0,
        "tle_line1": "1 58990U 24033A   25339.15461589  .00000000  00000+0  00000+0 0  9992",
        "tle_line2": "2 58990   0.0112   0.2967 0001760 260.1879 311.4740  1.00268596 45127"
      },
      "geometry": {
        "type": "Point",
        "coordinates": [
          -89.66714770230546,
          -0.03399212164961018
        ]
      }
    },
    {
      "type": "Feature",
      "properties": {
        "norad_id": 59051,
        "name": "METEOR-M2 4",
        "group": "weather",
        "lat": 49.210311130174254,
        "lon": -72.86860026971291,
        "alt_km": 808.2856210361861,
        "timestamp": "2025-12-06T07:31:39.888283+00:00",
        "meta_object_name": "METEOR-M2 4",
        "meta_object_id": "2024-039A",
        "meta_epoch": "2025-12-05T07:39:30.588192",
        "meta_mean_motion": 14.22399434,
        "meta_eccentricity": 0.00074469,
        "meta_inclination": 98.6755,
        "meta_ra_of_asc_node": 296.3447,
        "meta_arg_of_pericenter": 19.3703,
        "meta_mean_anomaly": 340.7757,
        "meta_ephemeris_type": 0,
        "meta_classification_type": "U",
        "meta_norad_cat_id": 59051,
        "meta_element_set_no": 999,
        "meta_rev_at_epoch": 9170,
        "meta_bstar": 5.4001329e-05,
        "meta_mean_motion_dot": 7.7e-07,
        "meta_mean_motion_ddot": 0,
        "tle_line1": "1 59051U 24039A   25339.31910403  .00000077  00000+0  54001-4 0  9998",
        "tle_line2": "2 59051  98.6755 296.3447 0007446  19.3703 340.7757 14.22399434 91702"
      },
      "geometry": {
        "type": "Point",
        "coordinates": [
          -72.86860026971291,
          49.210311130174254
        ]
      }
    },
    {
      "type": "Feature",
      "properties": {
        "norad_id": 60133,
        "name": "GOES 19",
        "group": "weather",
        "lat": 0.0046555865161228985,
        "lon": 113.07568412602515,
        "alt_km": 35792.38917621149,
        "timestamp": "2025-12-06T07:31:39.888294+00:00",
        "meta_object_name": "GOES 19",
        "meta_object_id": "2024-119A",
        "meta_epoch": "2025-12-05T06:07:38.867808",
        "meta_mean_motion": 1.00270371,
        "meta_eccentricity": 0.00013849,
        "meta_inclination": 0.0122,
        "meta_ra_of_asc_node": 83.1931,
        "meta_arg_of_pericenter": 215.2345,
        "meta_mean_anomaly": 152.6178,
        "meta_ephemeris_type": 0,
        "meta_classification_type": "U",
        "meta_norad_cat_id": 60133,
        "meta_element_set_no": 999,
        "meta_rev_at_epoch": 502,
        "meta_bstar": 0,
        "meta_mean_motion_dot": -2.36e-06,
        "meta_mean_motion_ddot": 0,
        "tle_line1": "1 60133U 24119A   25339.25531097 -.00000236  00000+0  00000+0 0  9994",
        "tle_line2": "2 60133   0.0122  83.1931 0001384 215.2345 152.6178  1.00270371  5021"
      },
      "geometry": {
        "type": "Point",
        "coordinates": [
          113.07568412602515,
          0.0046555865161228985
        ]
      }
    },
    {
      "type": "Feature",
      "properties": {
        "norad_id": 65815,
        "name": "FENGYUN 3H",
        "group": "weather",
        "lat": -13.351508352859957,
        "lon": -77.88406423565756,
        "alt_km": 830.1288569594562,
        "timestamp": "2025-12-06T07:31:39.888305+00:00",
        "meta_object_name": "FENGYUN 3H",
        "meta_object_id": "2025-219A",
        "meta_epoch": "2025-12-05T06:13:22.889280",
        "meta_mean_motion": 14.19901396,
        "meta_eccentricity": 6.147e-05,
        "meta_inclination": 98.6573,
        "meta_ra_of_asc_node": 279.0125,
        "meta_arg_of_pericenter": 74.8797,
        "meta_mean_anomaly": 285.2447,
        "meta_ephemeris_type": 0,
        "meta_classification_type": "U",
        "meta_norad_cat_id": 65815,
        "meta_element_set_no": 999,
        "meta_rev_at_epoch": 986,
        "meta_bstar": 0.00011293277,
        "meta_mean_motion_dot": 1.97e-06,
        "meta_mean_motion_ddot": 0,
        "tle_line1": "1 65815U 25219A   25339.25929270  .00000197  00000+0  11293-3 0  9997",
        "tle_line2": "2 65815  98.6573 279.0125 0000614  74.8797 285.2447 14.19901396  9862"
      },
      "geometry": {
        "type": "Point",
        "coordinates": [
          -77.88406423565756,
          -13.351508352859957
        ]
      }
    }
  ]
}